# Made by eph2tle, compiled Jan 12 2025 12:34:55
# Run at Thu Jan 23 16:18:08 2025 UTC
#
# No updates
#
#    The following TLEs (Two-Line Elements) were generated by fitting
# a numerically-integrated ephemeris,  based on the orbit given below,
# to the SDP4/SGP4 models.  Each TLE is good for the interval between
# its epoch and the epoch of the subsequent TLE (usually one day).
# The maximum deviation between the numerically integrated ephemerides
# and the TLE-based ephemeris, in kilometers,  is given for each TLE
# as the "worst residual".
#
#    This fitting is done using the 'eph2tle' code packaged with Find_Orb.
# The code has details on how the TLEs were computed :
#
#    https://github.com/Bill-Gray/find_orb/eph2tle.cpp
#
#    Be warned:  the error given is that between the numerically
# integrated ephems and the TLE model.  There will usually be at
# least some additional difference between the ephems and the actual
# motion of the satellite,  especially if the ephemerides are based
# on a short arc.  If the following orbital elements say something
# like "[based on] 10 observations 2015 Jan. 1-13",  and the TLEs
# are for 2015 May,  the extrapolation may be tenuous at best.  If
# your application requires a specific level of accuracy,  you may
# want to contact me;  I can give you some idea as to the fit of the
# underlying data (and possibly TLEs based on newer data).
#
#   You can usually find the underlying observational data,  and the
# fitted orbit,  residuals,  ephemerides,  and sometimes some comments
# about the object,  among the pages listed at
#
#    https://www.projectpluto.com/pluto/mpecs/pseudo.htm
#
#    WARNING:  for this object,  "normal" TLEs cannot be fitted.  (This
# usually means an object with an hyperbolic or nearly-parabolic orbit.)
# For this and similar cases,   an alternative model is used,  in which
# most of the traditional TLE data is replaced by six signed 8-digit hex
# numbers.  These six numbers are a state vector,  numerically integrated
# using a simplified force model.  This is necessary for objects at L2 or
# L1,  and sometimes for objects in high orbits where the SDP4/SGP4 model
# fails.  Some documentation is in 'get_el.cpp' in the source code at
# https://www.github.com/Bill-Gray/sat_code ; look for 'hex' in that file,
# with the actual integration done in 'sdp4.cpp'.  But be aware:  it's my
# own extension,  doesn't work with other code,  and is therefore used
# only when necessary.
#
#    Also,  if you use a TLE outside the "correct" time range (between
# its MJD and that of the next TLE),  all bets are off.  I've carefully
# computed and minimized the worst error over the "correct" time frame,
# but the ephemeris may (or may not) diverge wildly outside of it.
#
# Ephem range: 60697.000000 60827.000000 1.000000
# Created Thu Jan 23 11:18:06 2025
# Ephemeris start: 22 Jan 2025  0:00:00
# Ephemeris end:    1 Jun 2025  0:00:00
# Times are all TDT
# Positions/velocities are in equatorial J2000
# Orbital elements:  WMAP
#    Perihelion 2010 Nov 29.680773 +/- 0.000125 TT;  Constraint: A=0.04
# dx:       13.9 +/- 0.0149   dy:        -17 +/- 0.00688
# dz:       16.8 +/- 0.00263 m/s   T0: 2010 Oct 19.871 +/- 0.000738
# Epoch 2010 Nov 26.0 TT = JDT 2455526.5   Earth MOID: 0.0126      Find_Orb
# M 356.598183413 +/- 0.00011         (J2000 ecliptic)
# n   0.924212525 +/- 3.18e-7         Peri.   22.456753 +/- 0.00017
# a   1.043810070 +/- 2.4e-7          Node    44.660286 +/- 0.00010
# e   0.04138244 +/- 1.58e-7          Incl.    0.181871 +/- 0.0000014
# P   1.066/389.513d         H 27.62  G  0.15   U  2.7
# q 1.000614655 +/- 6.6e-8    Q 1.087005485 +/- 4.14e-7
# From 131 observations 2010 Oct. 1-2011 Jan. 19; mean residual 0".544
#
# 1 NoradU COSPAR   Epoch.epoch     dn/dt/2  d2n/dt2/6 BSTAR    T El# C
# 2 NoradU Inclina RAAscNode Eccent  ArgPeri MeanAno  MeanMotion Rev# C

# Worst residual: 7.51 km
# MJD 60697.000000 (2025 Jan 22  0:00)
WMAP
1 99999U 01027AA  25021.99919926 -06TM5Q7R -01ZCMP3P -00NLRLU0H 25800
2 99999                          +0008SNQR -0009B4FY -00042EYH     06

# Worst residual: 7.57 km
# MJD 60698.000000 (2025 Jan 23  0:00)
WMAP
1 99999U 01027AA  25022.99919926 -06RHJEOU -021JOS5J -00OKCF9NH 25802
2 99999                          +0008XRAY -0008ZM9W -0003XPB8     05

# Worst residual: 7.71 km
# MJD 60699.000000 (2025 Jan 24  0:00)
WMAP
1 99999U 01027AA  25023.99919926 -06PBQSK2 -023NYQS8 -00PHS68NH 25805
2 99999                          +00092G1Z -0008NY7N -0003SWS6     05

# Worst residual: 7.86 km
# MJD 60700.000000 (2025 Jan 25  0:00)
WMAP
1 99999U 01027AA  25024.99919926 -06N4VJ1X -025PF93T -00QE27CGH 25800
2 99999                          +00096P8N -0008C4Z7 -0003O1Q9     04

# Worst residual: 7.97 km
# MJD 60701.000000 (2025 Jan 26  0:00)
WMAP
1 99999U 01027AA  25025.99919926 -06KX1FTT -027O160A -00R95YL7H 25806
2 99999                          +0009AI4W -000807FA -0003J4L2     06

# Worst residual: 7.97 km
# MJD 60702.000000 (2025 Jan 27  0:00)
WMAP
1 99999U 01027AA  25026.99919926 -06IOCIIC -029JRKH1 -00S3303CH 25800
2 99999                          +0009DU3D -0007O6KS -0003E5VG     02

# Worst residual: 7.87 km
# MJD 60703.000000 (2025 Jan 28  0:00)
WMAP
1 99999U 01027AA  25027.99919926 -06GEWVPT -02BCLT5M -00SVT0YJH 25807
2 99999                          +0009GOME -0007C3NH -00039682     06

# Worst residual: 7.70 km
# MJD 60704.000000 (2025 Jan 29  0:00)
WMAP
1 99999U 01027AA  25028.99919926 -06E4UR8H -02D2JJZL -00TNBW52H 25804
2 99999                          +0009J1HX -0007001C -000346CV     00

# Worst residual: 7.54 km
# MJD 60705.000000 (2025 Jan 30  0:00)
WMAP
1 99999U 01027AA  25029.99919926 -06BUAD8Q -02EPKTFC -00UDNN3WH 25805
2 99999                          +0009KWVD -0006NX84 -0002Z71W     06

# Worst residual: 7.44 km
# MJD 60706.000000 (2025 Jan 31  0:00)
WMAP
1 99999U 01027AA  25030.99919926 -069JBUPV -02G9PYU9 -00V2SI23H 25800
2 99999                          +0009MBC7 -0006BWOU -0002U92O     04

# Worst residual: 7.40 km
# MJD 60707.000000 (2025 Feb  1  0:00)
WMAP
1 99999U 01027AA  25031.99919926 -067835JJ -02HQZPOD -00VQQVFSH 25800
2 99999                          +0009N9XT -0005ZZQ4 -0002PD39     00

# Worst residual: 7.38 km
# MJD 60708.000000 (2025 Feb  2  0:00)
WMAP
1 99999U 01027AA  25032.99919926 -064WNX07 -02J5F192 -00WDJAQKH 25806
2 99999                          +0009NU28 -0005O7AU -0002KJL7     09

# Worst residual: 7.33 km
# MJD 60709.000000 (2025 Feb  3  0:00)
WMAP
1 99999U 01027AA  25033.99919926 -062L5FGG -02KH13HT -00WZ6EP4H 25800
2 99999                          +0009O1A6 -0005CJYV -0002FSTU     02

# Worst residual: 7.25 km
# MJD 60710.000000 (2025 Feb  4  0:00)
WMAP
1 99999U 01027AA  25034.99919926 -0609MLI6 -02LPV577 -00XJOV9DH 25803
2 99999                          +0009NX6C -000511UD -0002B4TW     07

# Worst residual: 7.14 km
# MJD 60711.000000 (2025 Feb  5  0:00)
WMAP
1 99999U 01027AA  25035.99919926 -05XY5YR9 -02MVYEFV -00Y33BM0H 25800
2 99999                          +0009NJ5I -0004PONM -00026JEM     05

# Worst residual: 7.02 km
# MJD 60712.000000 (2025 Feb  6  0:00)
WMAP
1 99999U 01027AA  25036.99919926 -05VMTRRE -02NZBZMG -00YLECKKH 25801
2 99999                          +0009MWCM -0004EFUE -0002207F     03

# Worst residual: 6.91 km
# MJD 60713.000000 (2025 Feb  7  0:00)
WMAP
1 99999U 01027AA  25037.99919926 -05TBO0NS -02P00VEK -00Z2MFGRH 25804
2 99999                          +0009M1KI -00043ANL -0001XIS2     09

# Worst residual: 6.80 km
# MJD 60714.000000 (2025 Feb  8  0:00)
WMAP
1 99999U 01027AA  25038.99919926 -05R0QK6G -02PY1TH1 -00ZIRXGIH 25801
2 99999                          +0009KZ9I -0003S88T -0001T2MF     09

# Worst residual: 6.71 km
# MJD 60715.000000 (2025 Feb  9  0:00)
WMAP
1 99999U 01027AA  25039.99919926 -05OQ36M6 -02QTFE4M -00ZXV3C2H 25808
2 99999                          +0009JPJM -0003H7RD -0001ON8D     07

# Worst residual: 6.63 km
# MJD 60716.000000 (2025 Feb 10  0:00)
WMAP
1 99999U 01027AA  25040.99919926 -05MFROOQ -02RM5YJ7 -010BW1N2H 25802
2 99999                          +0009I87K -000368EV -0001K84Y     03

# Worst residual: 6.59 km
# MJD 60717.000000 (2025 Feb 11  0:00)
WMAP
1 99999U 01027AA  25041.99919926 -05K5TY29 -02SC9PKE -010OUT5IH 25808
2 99999                          +0009GISC -0002V9JP -0001FSXV     00

# Worst residual: 6.58 km
# MJD 60718.000000 (2025 Feb 12  0:00)
WMAP
1 99999U 01027AA  25042.99919926 -05HWBZG5 -02SZQP66 -0110RBMLH 25807
2 99999                          +0009EKLC -0002KAOL -0001BDCE     01

# Worst residual: 6.61 km
# MJD 60719.000000 (2025 Feb 13  0:00)
WMAP
1 99999U 01027AA  25043.99919926 -05FNC03F -02TKKW1Y -011BLGQ9H 25804
2 99999                          +0009CCT4 -00029BJX -00016X5X     05

# Worst residual: 6.63 km
# MJD 60720.000000 (2025 Feb 14  0:00)
WMAP
1 99999U 01027AA  25044.99919926 -05DEWENF -02U2S7K7 -011LD329H 25802
2 99999                          +00099UJY -0001YC40 -00012GC7     02

# Worst residual: 6.62 km
# MJD 60721.000000 (2025 Feb 15  0:00)
WMAP
1 99999U 01027AA  25045.99919926 -05B73TDI -02UICLIV -011U216KH 25802
2 99999                          +000970YH -0001NCIF -0000XYWZ     06

# Worst residual: 6.57 km
# MJD 60722.000000 (2025 Feb 16  0:00)
WMAP
1 99999U 01027AA  25046.99919926 -059011TP -02UVA1W3 -0121O6HKH 25807
2 99999                          +00093V7J -0001CD2Z -0000TH1F     02

# Worst residual: 6.50 km
# MJD 60723.000000 (2025 Feb 17  0:00)
WMAP
1 99999U 01027AA  25047.99919926 -056TR46K -02V5KO1G -01287FXXH 25803
2 99999                          +00090CL4 -00011EA7 -0000OYX9     00

# Worst residual: 6.46 km
# MJD 60724.000000 (2025 Feb 18  0:00)
WMAP
1 99999U 01027AA  25048.99919926 -054OD6FW -02VD8NQV -012DNSLSH 25805
2 99999                          +0008WGGS -0000QGO0 -0000KGU3     00

